IRIDIUM 171             
1 43929U 19002H   24029.84558263  .00000477  00000+0  16311-3 0  9999
2 43929  86.4027 357.0923 0002688  76.7701 283.3794 14.34218087264351
IRIDIUM 170             
1 43930U 19002J   24029.85830242  .00001690  00000+0  26413-3 0  9994
2 43930  86.6126 356.9335 0002453  91.2578 268.8920 14.72254969271352
IRIDIUM 167             
1 43931U 19002K   24030.39739205  .00000485  00000+0  16610-3 0  9992
2 43931  86.3999 356.6717 0002193  91.3775 268.7672 14.34219022264433
IRIDIUM 181             
1 56726U 23068S   24029.50355642  .00000281  00000+0  77339-4 0  9995
2 56726  86.8603  43.9816 0001904 105.0685 255.0727 14.43570385 36983
IRIDIUM 177             
1 56727U 23068T   24030.16871888  .00002304  00000+0  29969-3 0  9998
2 56727  86.1979  21.3438 0002631  94.0971 266.0551 14.80241576 37814
IRIDIUM 174             
1 56728U 23068U   24030.02815181  .00002260  00000+0  29389-3 0  9995
2 56728  86.1984  21.5029 0002534  92.5330 267.6181 14.80234129 37792
IRIDIUM 178             
1 56729U 23068V   24029.95519454  .00000888  00000+0  11342-3 0  9994
2 56729  86.5767  32.3983 0002600  96.3590 263.7928 14.80210782 37783
IRIDIUM 179             
1 56730U 23068W   24030.08498569  .00000867  00000+0  11076-3 0  9996
2 56730  86.6775  34.7241 0002276  95.4850 264.6631 14.80204070 37803
